{
  "type": "FeatureCollection",
  "features": [
    {
      "type": "Feature",
      "properties": {
        "norad_id": 34340,
        "name": "COSMOS 2251 DEB",
        "group": "cosmos-2251-debris",
        "lat": -58.99633878617512,
        "lon": -62.883238380113404,
        "alt_km": 1125.6509150382053,
        "timestamp": "2025-12-02T06:27:53.405470+00:00",
        "meta_object_name": "COSMOS 2251 DEB",
        "meta_object_id": "1993-036PN",
        "meta_epoch": "2025-12-01T10:35:48.238656",
        "meta_mean_motion": 13.79517325,
        "meta_eccentricity": 0.02817027,
        "meta_inclination": 74.079,
        "meta_ra_of_asc_node": 326.8558,
        "meta_arg_of_pericenter": 77.4638,
        "meta_mean_anomaly": 72.0156,
        "meta_ephemeris_type": 0,
        "meta_classification_type": "U",
        "meta_norad_cat_id": 34340,
        "meta_element_set_no": 999,
        "meta_rev_at_epoch": 84112,
        "meta_bstar": 0.00086807165,
        "meta_mean_motion_dot": 1.184e-05,
        "meta_mean_motion_ddot": 0,
        "tle_line1": "1 34340U 93036PN  25335.44153054  .00001184  00000+0  86807-3 0  9994",
        "tle_line2": "2 34340  74.0790 326.8558 0281702  77.4638  72.0156 13.79517325841125"
      },
      "geometry": {
        "type": "Point",
        "coordinates": [
          -62.883238380113404,
          -58.99633878617512
        ]
      }
    },
    {
      "type": "Feature",
      "properties": {
        "norad_id": 34343,
        "name": "COSMOS 2251 DEB",
        "group": "cosmos-2251-debris",
        "lat": -49.5464694976396,
        "lon": -50.509558741620964,
        "alt_km": 684.8781819584565,
        "timestamp": "2025-12-02T06:27:53.405480+00:00",
        "meta_object_name": "COSMOS 2251 DEB",
        "meta_object_id": "1993-036PR",
        "meta_epoch": "2025-12-01T20:07:32.830752",
        "meta_mean_motion": 14.69113708,
        "meta_eccentricity": 0.0022391,
        "meta_inclination": 74.0189,
        "meta_ra_of_asc_node": 110.686,
        "meta_arg_of_pericenter": 29.8106,
        "meta_mean_anomaly": 85.0972,
        "meta_ephemeris_type": 0,
        "meta_classification_type": "U",
        "meta_norad_cat_id": 34343,
        "meta_element_set_no": 999,
        "meta_rev_at_epoch": 88570,
        "meta_bstar": 0.0016468,
        "meta_mean_motion_dot": 9.699e-05,
        "meta_mean_motion_ddot": 0,
        "tle_line1": "1 34343U 93036PR  25335.83857443  .00009699  00000+0  16468-2 0  9997",
        "tle_line2": "2 34343  74.0189 110.6860 0022391  29.8106  85.0972 14.69113708885702"
      },
      "geometry": {
        "type": "Point",
        "coordinates": [
          -50.509558741620964,
          -49.5464694976396
        ]
      }
    },
    {
      "type": "Feature",
      "properties": {
        "norad_id": 34344,
        "name": "COSMOS 2251 DEB",
        "group": "cosmos-2251-debris",
        "lat": 13.323372907889864,
        "lon": -54.866614010334985,
        "alt_km": 934.4813964200248,
        "timestamp": "2025-12-02T06:27:53.405490+00:00",
        "meta_object_name": "COSMOS 2251 DEB",
        "meta_object_id": "1993-036PS",
        "meta_epoch": "2025-12-01T20:06:03.023136",
        "meta_mean_motion": 14.16290713,
        "meta_eccentricity": 0.0155046,
        "meta_inclination": 73.9767,
        "meta_ra_of_asc_node": 129.8061,
        "meta_arg_of_pericenter": 316.2933,
        "meta_mean_anomaly": 169.7384,
        "meta_ephemeris_type": 0,
        "meta_classification_type": "U",
        "meta_norad_cat_id": 34344,
        "meta_element_set_no": 999,
        "meta_rev_at_epoch": 85942,
        "meta_bstar": 0.0014266,
        "meta_mean_motion_dot": 3.155e-05,
        "meta_mean_motion_ddot": 0,
        "tle_line1": "1 34344U 93036PS  25335.83753499  .00003155  00000+0  14266-2 0  9999",
        "tle_line2": "2 34344  73.9767 129.8061 0155046 316.2933 169.7384 14.16290713859424"
      },
      "geometry": {
        "type": "Point",
        "coordinates": [
          -54.866614010334985,
          13.323372907889864
        ]
      }
    },
    {
      "type": "Feature",
      "properties": {
        "norad_id": 34346,
        "name": "COSMOS 2251 DEB",
        "group": "cosmos-2251-debris",
        "lat": -8.743165684860877,
        "lon": 152.9451753616811,
        "alt_km": 777.5781864650444,
        "timestamp": "2025-12-02T06:27:53.405500+00:00",
        "meta_object_name": "COSMOS 2251 DEB",
        "meta_object_id": "1993-036PU",
        "meta_epoch": "2025-12-01T09:33:54.327744",
        "meta_mean_motion": 13.99640646,
        "meta_eccentricity": 0.02069473,
        "meta_inclination": 73.9945,
        "meta_ra_of_asc_node": 331.9255,
        "meta_arg_of_pericenter": 153.5218,
        "meta_mean_anomaly": 327.9253,
        "meta_ephemeris_type": 0,
        "meta_classification_type": "U",
        "meta_norad_cat_id": 34346,
        "meta_element_set_no": 999,
        "meta_rev_at_epoch": 85251,
        "meta_bstar": 0.00093334293,
        "meta_mean_motion_dot": 1.618e-05,
        "meta_mean_motion_ddot": 0,
        "tle_line1": "1 34346U 93036PU  25335.39854546  .00001618  00000+0  93334-3 0  9993",
        "tle_line2": "2 34346  73.9945 331.9255 0206947 153.5218 327.9253 13.99640646852510"
      },
      "geometry": {
        "type": "Point",
        "coordinates": [
          152.9451753616811,
          -8.743165684860877
        ]
      }
    },
    {
      "type": "Feature",
      "properties": {
        "norad_id": 34383,
        "name": "COSMOS 2251 DEB",
        "group": "cosmos-2251-debris",
        "lat": -69.58822495348876,
        "lon": -170.3718548838915,
        "alt_km": 552.8649133661747,
        "timestamp": "2025-12-02T06:27:53.405510+00:00",
        "meta_object_name": "COSMOS 2251 DEB",
        "meta_object_id": "1993-036PY",
        "meta_epoch": "2025-12-01T17:21:33.610752",
        "meta_mean_motion": 15.07329614,
        "meta_eccentricity": 0.0003358,
        "meta_inclination": 74.0216,
        "meta_ra_of_asc_node": 320.3986,
        "meta_arg_of_pericenter": 36.6543,
        "meta_mean_anomaly": 138.5577,
        "meta_ephemeris_type": 0,
        "meta_classification_type": "U",
        "meta_norad_cat_id": 34383,
        "meta_element_set_no": 999,
        "meta_rev_at_epoch": 88947,
        "meta_bstar": 0.0031221,
        "meta_mean_motion_dot": 0.00047466,
        "meta_mean_motion_ddot": 0,
        "tle_line1": "1 34383U 93036PY  25335.72330568  .00047466  00000+0  31221-2 0  9991",
        "tle_line2": "2 34383  74.0216 320.3986 0003358  36.6543 138.5577 15.07329614889470"
      },
      "geometry": {
        "type": "Point",
        "coordinates": [
          -170.3718548838915,
          -69.58822495348876
        ]
      }
    },
    {
      "type": "Feature",
      "properties": {
        "norad_id": 34387,
        "name": "COSMOS 2251 DEB",
        "group": "cosmos-2251-debris",
        "lat": 71.27972396812376,
        "lon": -6.258229622190509,
        "alt_km": 756.1903706068824,
        "timestamp": "2025-12-02T06:27:53.405581+00:00",
        "meta_object_name": "COSMOS 2251 DEB",
        "meta_object_id": "1993-036QC",
        "meta_epoch": "2025-12-01T04:05:42.963360",
        "meta_mean_motion": 14.43779457,
        "meta_eccentricity": 0.00384604,
        "meta_inclination": 74.0405,
        "meta_ra_of_asc_node": 233.3971,
        "meta_arg_of_pericenter": 332.6263,
        "meta_mean_anomaly": 178.4473,
        "meta_ephemeris_type": 0,
        "meta_classification_type": "U",
        "meta_norad_cat_id": 34387,
        "meta_element_set_no": 999,
        "meta_rev_at_epoch": 88014,
        "meta_bstar": 0.00032827105,
        "meta_mean_motion_dot": 1.1e-05,
        "meta_mean_motion_ddot": 0,
        "tle_line1": "1 34387U 93036QC  25335.17063615  .00001100  00000+0  32827-3 0  9999",
        "tle_line2": "2 34387  74.0405 233.3971 0038460 332.6263 178.4473 14.43779457880147"
      },
      "geometry": {
        "type": "Point",
        "coordinates": [
          -6.258229622190509,
          71.27972396812376
        ]
      }
    },
    {
      "type": "Feature",
      "properties": {
        "norad_id": 34388,
        "name": "COSMOS 2251 DEB",
        "group": "cosmos-2251-debris",
        "lat": -51.250037913832834,
        "lon": 83.62973505238625,
        "alt_km": 729.0538529639207,
        "timestamp": "2025-12-02T06:27:53.405594+00:00",
        "meta_object_name": "COSMOS 2251 DEB",
        "meta_object_id": "1993-036QD",
        "meta_epoch": "2025-12-01T19:42:33.439104",
        "meta_mean_motion": 14.49266504,
        "meta_eccentricity": 0.0014377,
        "meta_inclination": 74.0399,
        "meta_ra_of_asc_node": 243.5799,
        "meta_arg_of_pericenter": 292.1632,
        "meta_mean_anomaly": 124.9163,
        "meta_ephemeris_type": 0,
        "meta_classification_type": "U",
        "meta_norad_cat_id": 34388,
        "meta_element_set_no": 999,
        "meta_rev_at_epoch": 87997,
        "meta_bstar": 0.0007736,
        "meta_mean_motion_dot": 2.928e-05,
        "meta_mean_motion_ddot": 0,
        "tle_line1": "1 34388U 93036QD  25335.82122036  .00002928  00000+0  77360-3 0  9995",
        "tle_line2": "2 34388  74.0399 243.5799 0014377 292.1632 124.9163 14.49266504879973"
      },
      "geometry": {
        "type": "Point",
        "coordinates": [
          83.62973505238625,
          -51.250037913832834
        ]
      }
    }
  ]
}